#aV2019  1 17  0  0  0.00000000     288 DD+AD WGS84 FIT  NGA
## 2036 345600.00000000   300.00000000 58500 0.0000000000000
+   31     1  2  3  5  6  7  8  9 10 11 12 13 14 15 16 17 18
+         19 20 21 22 23 24 25 26 27 28 29 30 31 32  0  0  0
+          0  0  0  0  0  0  0  0  0  0  0  0  0  0  0  0  0
+          0  0  0  0  0  0  0  0  0  0  0  0  0  0  0  0  0
+          0  0  0  0  0  0  0  0  0  0  0  0  0  0  0  0  0
++         2  2  2  2  2  2  2  2  2  2  2  2  2  2  2  2  2
++         2  2  2  2  2  2  2  2  2  2  2  2  2  2  0  0  0
++         0  0  0  0  0  0  0  0  0  0  0  0  0  0  0  0  0
++         0  0  0  0  0  0  0  0  0  0  0  0  0  0  0  0  0
++         0  0  0  0  0  0  0  0  0  0  0  0  0  0  0  0  0
%c cc cc ccc ccc cccc cccc cccc cccc ccccc ccccc ccccc ccccc
%c cc cc ccc ccc cccc cccc cccc cccc ccccc ccccc ccccc ccccc
%f  0.0000000  0.000000000  0.00000000000  0.000000000000000
%f  0.0000000  0.000000000  0.00000000000  0.000000000000000
%i    0    0    0    0      0      0      0      0         0
%i    0    0    0    0      0      0      0      0         0
/*      NGA, ST. LOUIS,MO.                                  
/*   EPHEMERIS COMPUTED FROM 2 DAYS OF DATA                 
/*   EPOCHA v3 SMOOTHER                                     
/*   G1762 IERS2010 SATAF SATAPC                            
*  2019  1 17  6  0  0.00000000
P  1  20249.429398  10421.189578  13752.569664   -146.737221                    
V  1   9638.656632  14826.871671 -24817.584584     -0.064440                    
P  2 -13379.292269 -22134.735944   7068.408669   -115.233122                    
V  2   7442.419766   4256.387861  29768.070858     -0.100832                    
P  3  15746.720335    484.311757  21334.849411    177.704556                    
V  3  -9265.487269  25566.296828   6316.361180      0.024476                    
P  5  -5610.589899 -19856.847574 -16729.289945      0.833720                    
V  5   9113.996523 -19180.595703  20050.578198      0.001163                    
P  6  -2551.317851 -20793.661699  16354.535623    295.272234                    
V  6  14265.797930  15042.031229  21425.640465     -0.076271                    
P  7  15633.797583  -3963.208968 -20934.473726     50.207543                    
V  7  16237.158358  21675.625462   7477.674751     -0.071066                    
P  8  20533.150184   7162.755122 -15325.476207   -129.346684                    
V  8 -18893.791197   4947.017103 -22745.545144     -0.013454                    
P  9  24724.483703  -8113.582884  -5399.329259    470.738738                    
V  9   7206.445674   1800.325865  30556.030916     -0.046558                    
P 10 -11061.384710  23890.954577  -2557.975052    134.196472                    
V 10  -1535.879339  -4148.250982 -31695.663026     -0.065823                    
P 11  24556.955464   8855.498029   3649.492033   -674.192338                    
V 11   2752.026740   6532.753099 -30211.770213      0.053614                    
P 12 -14125.187713  -4121.269915  21903.154636    275.710992                    
V 12  11641.061518 -25727.018688   2817.653831     -0.031074                    
P 13 -13301.860239 -12803.507804 -19224.714437    -78.046713                    
V 13  24075.249038  -2017.065488 -15376.925635      0.012811                    
P 14  -3371.266641  15440.719023  21627.633741    -93.025840                    
V 14 -26740.907290   1525.351579  -5508.913047      0.006414                    
P 15 -22889.134879  -4536.095590 -13294.409816   -331.906750                    
V 15  15260.969390  -6586.353174 -24105.757670      0.015712                    
P 16   3512.566959  19507.282129 -17627.234515    -13.234239                    
V 16 -11004.451766  19294.306547  19761.845198     -0.023705                    
P 17  13620.118785 -13796.851667  18518.410634     -3.610249                    
V 17  22654.499167  -1217.975125 -18068.831189      0.053633                    
P 18  19447.258753  17639.906758   4010.959727     16.589533                    
V 18   1544.182159   6206.080876 -30935.927020      0.037972                    
P 19   4093.701473 -14637.172246  21503.276816   -362.508315                    
V 19  27902.697134  -1183.709457  -5933.594493      0.039987                    
P 20 -14228.071621  18813.831543 -12191.403086    521.206422                    
V 20    769.763265 -15728.993057 -25545.074066      0.004111                    
P 21 -13132.347567   7883.704364 -20889.020668   -267.643430                    
V 21 -18731.379945 -21476.711252   3628.412806      0.069515                    
P 22  13822.329615   8903.635081  21097.420883   -624.551482                    
V 22  -8391.017104  25025.357630  -5073.301628     -0.086539                    
P 23  26326.876050   -793.646701   5154.666826   -200.277954                    
V 23  -5512.977606   3907.253934  30191.277130      0.011895                    
P 24 -21083.261843 -13299.726042   9477.601993    -60.916144                    
V 24  -5912.113510 -11032.671728 -27874.825036     -0.004578                    
P 25 -16810.389667   8583.713881  18387.628364   -707.058011                    
V 25   7232.909749 -22735.380510  17293.928805     -0.054563                    
P 26  -2064.833523  24787.457294  -9084.774004     98.619445                    
V 26  -6655.220081   9916.674210  28767.592615      0.105786                    
P 27  11185.703382  12403.483138 -20804.105398    -50.433802                    
V 27 -25677.980635   4721.250249 -10759.238033     -0.066479                    
P 28  13379.616490 -22713.515224  -2973.977614    762.161347                    
V 28   -151.990320   4968.496128 -31910.608283      0.011018                    
P 29 -26193.026394   3842.309930  -2144.586916    291.531176                    
V 29  -2868.297922  -1787.212246  32130.387834     -0.083985                    
P 30   7457.337394 -15058.726166 -20517.167899    -37.198922                    
V 30  16362.151213  20483.436346  -9251.127670     -0.061711                    
P 31   4149.476087  21849.694638  14183.010917     65.204250                    
V 31 -12921.746561 -13008.618186  24273.262942     -0.026658                    
P 32 -10719.585524  15273.430759  18901.415708   -271.140817                    
V 32 -23894.844882   2399.307275 -15623.911353      0.172539                    
EOF
